{
  "type": "FeatureCollection",
  "features": [
    {
      "type": "Feature",
      "properties": {
        "norad_id": 43706,
        "name": "BEIDOU-3 M17 (C36)",
        "group": "beidou",
        "lat": -6.0495698185269475,
        "lon": -176.25015112406723,
        "alt_km": 21517.653704561068,
        "timestamp": "2025-12-26T22:28:06.049737+00:00",
        "meta_object_name": "BEIDOU-3 M17 (C36)",
        "meta_object_id": "2018-093A",
        "meta_epoch": "2025-12-26T03:36:39.806208",
        "meta_mean_motion": 1.86228273,
        "meta_eccentricity": 0.00059945,
        "meta_inclination": 54.1735,
        "meta_ra_of_asc_node": 188.1665,
        "meta_arg_of_pericenter": 306.9478,
        "meta_mean_anomaly": 238.7851,
        "meta_ephemeris_type": 0,
        "meta_classification_type": "U",
        "meta_norad_cat_id": 43706,
        "meta_element_set_no": 999,
        "meta_rev_at_epoch": 4831,
        "meta_bstar": 0,
        "meta_mean_motion_dot": 1.19e-06,
        "meta_mean_motion_ddot": 0,
        "tle_line1": "1 43706U 18093A   25360.15046072  .00000119  00000+0  00000+0 0  9991",
        "tle_line2": "2 43706  54.1735 188.1665 0005994 306.9478 238.7851  1.86228273 48315"
      },
      "geometry": {
        "type": "Point",
        "coordinates": [
          -176.25015112406723,
          -6.0495698185269475
        ]
      }
    },
    {
      "type": "Feature",
      "properties": {
        "norad_id": 43707,
        "name": "BEIDOU-3 M18 (C37)",
        "group": "beidou",
        "lat": 53.88920234075053,
        "lon": -89.73466146187765,
        "alt_km": 21522.516624220945,
        "timestamp": "2025-12-26T22:28:06.049749+00:00",
        "meta_object_name": "BEIDOU-3 M18 (C37)",
        "meta_object_id": "2018-093B",
        "meta_epoch": "2025-12-23T01:12:21.238848",
        "meta_mean_motion": 1.86226616,
        "meta_eccentricity": 0.0006147,
        "meta_inclination": 54.1741,
        "meta_ra_of_asc_node": 188.2636,
        "meta_arg_of_pericenter": 354.1254,
        "meta_mean_anomaly": 5.9078,
        "meta_ephemeris_type": 0,
        "meta_classification_type": "U",
        "meta_norad_cat_id": 43707,
        "meta_element_set_no": 999,
        "meta_rev_at_epoch": 4825,
        "meta_bstar": 0,
        "meta_mean_motion_dot": 9.6e-07,
        "meta_mean_motion_ddot": 0,
        "tle_line1": "1 43707U 18093B   25357.05024582  .00000096  00000+0  00000+0 0  9993",
        "tle_line2": "2 43707  54.1741 188.2636 0006147 354.1254   5.9078  1.86226616 48257"
      },
      "geometry": {
        "type": "Point",
        "coordinates": [
          -89.73466146187765,
          53.88920234075053
        ]
      }
    },
    {
      "type": "Feature",
      "properties": {
        "norad_id": 44231,
        "name": "BEIDOU-2 G8 (C01)",
        "group": "beidou",
        "lat": 1.0268412591522194,
        "lon": -142.85264063895306,
        "alt_km": 35800.93703853631,
        "timestamp": "2025-12-26T22:28:06.049761+00:00",
        "meta_object_name": "BEIDOU-2 G8 (C01)",
        "meta_object_id": "2019-027A",
        "meta_epoch": "2025-12-26T12:18:38.668320",
        "meta_mean_motion": 1.00273913,
        "meta_eccentricity": 0.00083367,
        "meta_inclination": 1.6946,
        "meta_ra_of_asc_node": 74.74,
        "meta_arg_of_pericenter": 258.9308,
        "meta_mean_anomaly": 90.7708,
        "meta_ephemeris_type": 0,
        "meta_classification_type": "U",
        "meta_norad_cat_id": 44231,
        "meta_element_set_no": 999,
        "meta_rev_at_epoch": 2434,
        "meta_bstar": 0,
        "meta_mean_motion_dot": -2.25e-06,
        "meta_mean_motion_ddot": 0,
        "tle_line1": "1 44231U 19027A   25360.51294755 -.00000225  00000+0  00000+0 0  9995",
        "tle_line2": "2 44231   1.6946  74.7400 0008336 258.9308  90.7708  1.00273913 24349"
      },
      "geometry": {
        "type": "Point",
        "coordinates": [
          -142.85264063895306,
          1.0268412591522194
        ]
      }
    },
    {
      "type": "Feature",
      "properties": {
        "norad_id": 44337,
        "name": "BEIDOU-3 IGSO-2 (C39)",
        "group": "beidou",
        "lat": 25.46141019105762,
        "lon": 179.6914356940779,
        "alt_km": 35942.52199908015,
        "timestamp": "2025-12-26T22:28:06.049773+00:00",
        "meta_object_name": "BEIDOU-3 IGSO-2 (C39)",
        "meta_object_id": "2019-035A",
        "meta_epoch": "2025-12-26T08:27:52.331328",
        "meta_mean_motion": 1.00266958,
        "meta_eccentricity": 0.0037903,
        "meta_inclination": 55.2292,
        "meta_ra_of_asc_node": 160.3818,
        "meta_arg_of_pericenter": 202.693,
        "meta_mean_anomaly": 338.2763,
        "meta_ephemeris_type": 0,
        "meta_classification_type": "U",
        "meta_norad_cat_id": 44337,
        "meta_element_set_no": 999,
        "meta_rev_at_epoch": 2393,
        "meta_bstar": 0,
        "meta_mean_motion_dot": -6e-07,
        "meta_mean_motion_ddot": 0,
        "tle_line1": "1 44337U 19035A   25360.35268902 -.00000060  00000+0  00000+0 0  9995",
        "tle_line2": "2 44337  55.2292 160.3818 0037903 202.6930 338.2763  1.00266958 23935"
      },
      "geometry": {
        "type": "Point",
        "coordinates": [
          179.6914356940779,
          25.46141019105762
        ]
      }
    },
    {
      "type": "Feature",
      "properties": {
        "norad_id": 44542,
        "name": "BEIDOU-3 M24 (C46)",
        "group": "beidou",
        "lat": 29.920369083899914,
        "lon": -147.10379328576204,
        "alt_km": 21498.419272954303,
        "timestamp": "2025-12-26T22:28:06.049785+00:00",
        "meta_object_name": "BEIDOU-3 M24 (C46)",
        "meta_object_id": "2019-061A",
        "meta_epoch": "2025-12-25T19:20:31.720416",
        "meta_mean_motion": 1.86229328,
        "meta_eccentricity": 0.00095592,
        "meta_inclination": 54.4007,
        "meta_ra_of_asc_node": 188.5751,
        "meta_arg_of_pericenter": 26.2339,
        "meta_mean_anomaly": 333.8493,
        "meta_ephemeris_type": 0,
        "meta_classification_type": "U",
        "meta_norad_cat_id": 44542,
        "meta_element_set_no": 999,
        "meta_rev_at_epoch": 4256,
        "meta_bstar": 0,
        "meta_mean_motion_dot": 1.16e-06,
        "meta_mean_motion_ddot": 0,
        "tle_line1": "1 44542U 19061A   25359.80592269  .00000116  00000+0  00000+0 0  9997",
        "tle_line2": "2 44542  54.4007 188.5751 0009559  26.2339 333.8493  1.86229328 42560"
      },
      "geometry": {
        "type": "Point",
        "coordinates": [
          -147.10379328576204,
          29.920369083899914
        ]
      }
    },
    {
      "type": "Feature",
      "properties": {
        "norad_id": 44543,
        "name": "BEIDOU-3 M23 (C45)",
        "group": "beidou",
        "lat": -38.214483367653564,
        "lon": 154.15774967085517,
        "alt_km": 21528.730798440207,
        "timestamp": "2025-12-26T22:28:06.049796+00:00",
        "meta_object_name": "BEIDOU-3 M23 (C45)",
        "meta_object_id": "2019-061B",
        "meta_epoch": "2025-12-26T11:37:48.857664",
        "meta_mean_motion": 1.86227559,
        "meta_eccentricity": 0.0005976,
        "meta_inclination": 54.3995,
        "meta_ra_of_asc_node": 188.5205,
        "meta_arg_of_pericenter": 25.6827,
        "meta_mean_anomaly": 342.0898,
        "meta_ephemeris_type": 0,
        "meta_classification_type": "U",
        "meta_norad_cat_id": 44543,
        "meta_element_set_no": 999,
        "meta_rev_at_epoch": 4258,
        "meta_bstar": 0,
        "meta_mean_motion_dot": 1.22e-06,
        "meta_mean_motion_ddot": 0,
        "tle_line1": "1 44543U 19061B   25360.48459326  .00000122  00000+0  00000+0 0  9997",
        "tle_line2": "2 44543  54.3995 188.5205 0005976  25.6827 342.0898  1.86227559 42581"
      },
      "geometry": {
        "type": "Point",
        "coordinates": [
          154.15774967085517,
          -38.214483367653564
        ]
      }
    },
    {
      "type": "Feature",
      "properties": {
        "norad_id": 44793,
        "name": "BEIDOU-3 M22 (C44)",
        "group": "beidou",
        "lat": 27.531252877932214,
        "lon": 103.70976113281023,
        "alt_km": 21533.477342164268,
        "timestamp": "2025-12-26T22:28:06.049807+00:00",
        "meta_object_name": "BEIDOU-3 M22 (C44)",
        "meta_object_id": "2019-078A",
        "meta_epoch": "2025-12-26T04:23:18.195072",
        "meta_mean_motion": 1.86232141,
        "meta_eccentricity": 0.0006121,
        "meta_inclination": 54.096,
        "meta_ra_of_asc_node": 305.9151,
        "meta_arg_of_pericenter": 23.7349,
        "meta_mean_anomaly": 336.3032,
        "meta_ephemeris_type": 0,
        "meta_classification_type": "U",
        "meta_norad_cat_id": 44793,
        "meta_element_set_no": 999,
        "meta_rev_at_epoch": 4142,
        "meta_bstar": 0,
        "meta_mean_motion_dot": -5.6e-07,
        "meta_mean_motion_ddot": 0,
        "tle_line1": "1 44793U 19078A   25360.18284948 -.00000056  00000+0  00000+0 0  9992",
        "tle_line2": "2 44793  54.0960 305.9151 0006121  23.7349 336.3032  1.86232141 41424"
      },
      "geometry": {
        "type": "Point",
        "coordinates": [
          103.70976113281023,
          27.531252877932214
        ]
      }
    }
  ]
}